NORAD_CAT_ID,OBJECT_NAME,OBJECT_TYPE,EPOCH,MEAN_MOTION,ECCENTRICITY,INCLINATION,RA_OF_ASC_NODE,ARG_OF_PERICENTER,MEAN_ANOMALY,BSTAR,MEAN_MOTION_DOT,MEAN_MOTION_DDOT,TLE_LINE0,TLE_LINE1,TLE_LINE2,SEMIMAJOR_AXIS,PERIOD,APOGEE,PERIGEE,DECAYED
56787.0,STARLINK-6326,PAYLOAD,2024-01-10 10:55:25,14.98330307,0.0003256,70.0002,154.4049,261.9219,98.157,4.8594e-07,-8.7e-07,0.0,0 STARLINK-6326,1 56787U 23078W   24010.45515312 -.00000087  00000-0  48594-6 0  9998,2 56787  70.0002 154.4049 0003256 261.9219  98.1570 14.98330307 35216,6950.192,96.107,574.32,569.794,0.0
56787.0,STARLINK-6326,PAYLOAD,2024-01-11 12:33:34,14.98324509,0.0003099,70.0006,151.7133,258.0331,102.048,-1.2097e-05,-2.37e-06,0.0,0 STARLINK-6326,1 56787U 23078W   24011.52331736 -.00000237  00000-0 -12097-4 0  9998,2 56787  70.0006 151.7133 0003099 258.0331 102.0480 14.98324509 35370,6950.21,96.107,574.229,569.921,0.0
56787.0,STARLINK-6326,PAYLOAD,2024-01-11 14:09:42,14.98324538,0.0003101,70.0006,151.545,258.0846,101.9965,-1.1493e-05,-2.3e-06,0.0,0 STARLINK-6326,1 56787U 23078W   24011.59007756 -.00000230  00000-0 -11493-4 0  9999,2 56787  70.0006 151.5450 0003101 258.0846 101.9965 14.98324538 35126,6950.21,96.107,574.23,569.92,0.0
56787.0,STARLINK-6326,PAYLOAD,2024-01-11 18:58:06,14.98324195,0.0003124,70.0006,151.0401,259.2997,100.7811,-1.7229e-05,-2.99e-06,0.0,0 STARLINK-6326,1 56787U 23078W   24011.79035868 -.00000299  00000-0 -17229-4 0  9994,2 56787  70.0006 151.0401 0003124 259.2997 100.7811 14.98324195 35151,6950.211,96.107,574.247,569.905,0.0
56787.0,STARLINK-6326,PAYLOAD,2024-01-12 10:59:27,14.98331724,0.0003257,70.0001,149.3553,264.9853,95.0934,2.5712e-06,-6.2e-07,0.0,0 STARLINK-6326,1 56787U 23078W   24012.45795394 -.00000062  00000-0  25712-5 0  9999,2 56787  70.0001 149.3553 0003257 264.9853  95.0934 14.98331724 35513,6950.188,96.107,574.316,569.789,0.0
56787.0,STARLINK-6326,PAYLOAD,2024-01-12 14:11:43,14.98332329,0.0003237,70.0002,149.0188,264.8326,95.2464,1.2608e-05,5.7e-07,0.0,0 STARLINK-6326,1 56787U 23078W   24012.59147318  .00000057  00000-0  12608-4 0  9993,2 56787  70.0002 149.0188 0003237 264.8326  95.2464 14.98332329 35272,6950.186,96.107,574.3,569.801,0.0
56787.0,STARLINK-6326,PAYLOAD,2024-01-12 19:00:07,14.98336108,0.0003187,70.0003,148.5138,263.6543,96.4253,5.7428e-05,5.92e-06,0.0,0 STARLINK-6326,1 56787U 23078W   24012.79174899  .00000592  00000-0  57428-4 0  9992,2 56787  70.0003 148.5138 0003187 263.6543  96.4253 14.98336108 35306,6950.174,96.107,574.254,569.824,0.0
56787.0,STARLINK-6326,PAYLOAD,2024-01-13 11:01:28,14.98325856,0.0003104,70.0005,146.8303,264.6172,95.4633,4.3717e-05,4.29e-06,0.0,0 STARLINK-6326,1 56787U 23078W   24013.45935536  .00000429  00000-0  43717-4 0  9994,2 56787  70.0005 146.8303 0003104 264.6172  95.4633 14.98325856 35669,6950.206,96.107,574.228,569.913,0.0
56787.0,STARLINK-6326,PAYLOAD,2024-01-13 14:13:44,14.98326022,0.00031,70.0004,146.4937,264.3688,95.7118,4.3699e-05,4.28e-06,0.0,0 STARLINK-6326,1 56787U 23078W   24013.59287557  .00000428  00000-0  43699-4 0  9990,2 56787  70.0004 146.4937 0003100 264.3688  95.7118 14.98326022 35423,6950.205,96.107,574.225,569.916,0.0
56787.0,STARLINK-6326,PAYLOAD,2024-01-13 19:02:08,14.98350644,0.000272,70.0008,145.9888,261.3846,98.7005,-0.00032174,-3.932e-05,0.0,0 STARLINK-6326,1 56787U 23078W   24013.79314868 -.00003932  00000-0 -32174-3 0  9998,2 56787  70.0008 145.9888 0002720 261.3846  98.7005 14.98350644 35713,6950.129,96.106,573.884,570.104,0.0
56787.0,STARLINK-6326,PAYLOAD,2024-01-14 11:03:29,14.98330697,0.0002995,70.0009,144.306,262.6435,97.4384,3.0279e-06,-5.7e-07,0.0,0 STARLINK-6326,1 56787U 23078W   24014.46075320 -.00000057  00000-0  30279-5 0  9990,2 56787  70.0009 144.3060 0002995 262.6435  97.4384 14.98330697 35814,6950.191,96.107,574.137,569.974,0.0
56787.0,STARLINK-6326,PAYLOAD,2024-01-14 14:15:45,14.98330681,0.000299,70.0006,143.9691,261.2709,98.8111,-8.9797e-08,-9.4e-07,0.0,0 STARLINK-6326,1 56787U 23078W   24014.59427315 -.00000094  00000-0 -89797-7 0  9992,2 56787  70.0006 143.9691 0002990 261.2709  98.8111 14.98330681 35579,6950.191,96.107,574.134,569.978,0.0
56787.0,STARLINK-6326,PAYLOAD,2024-01-14 17:28:01,14.98332216,0.0002981,70.0006,143.6325,261.5669,98.5152,1.5306e-05,9e-07,0.0,0 STARLINK-6326,1 56787U 23078W   24014.72779154  .00000090  00000-0  15306-4 0  9994,2 56787  70.0006 143.6325 0002981 261.5669  98.5152 14.98332216 35598,6950.186,96.107,574.123,569.979,0.0
56787.0,STARLINK-6326,PAYLOAD,2024-01-15 12:41:38,14.9832197,0.0002967,70.0008,141.6133,264.9956,95.0865,-9.0226e-06,-2.01e-06,0.0,0 STARLINK-6326,1 56787U 23078W   24015.52891913 -.00000201  00000-0 -90226-5 0  9992,2 56787  70.0008 141.6133 0002967 264.9956  95.0865 14.98321970 35975,6950.218,96.108,574.145,570.021,0.0
56787.0,STARLINK-6326,PAYLOAD,2024-01-15 14:17:46,14.98341989,0.0003069,70.0008,141.4449,263.6368,96.4442,-0.00034542,-4.213e-05,0.0,0 STARLINK-6326,1 56787U 23078W   24015.59567545 -.00004213  00000-0 -34542-3 0  9994,2 56787  70.0008 141.4449 0003069 263.6368  96.4442 14.98341989 35721,6950.156,96.106,574.154,569.888,0.0
56787.0,STARLINK-6326,PAYLOAD,2024-01-15 15:53:54,14.98358615,0.0003122,70.0008,141.2766,262.419,97.6614,-0.00061745,-7.458e-05,0.0,0 STARLINK-6326,1 56787U 23078W   24015.66243102 -.00007458  00000-0 -61745-3 0  9991,2 56787  70.0008 141.2766 0003122 262.4190  97.6614 14.98358615 35998,6950.104,96.105,574.139,569.8,0.0
56787.0,STARLINK-6326,PAYLOAD,2024-01-16 12:43:39,14.98329959,0.0003002,70.0005,139.0882,264.6497,95.432,9.1291e-06,1.6e-07,0.0,0 STARLINK-6326,1 56787U 23078W   24016.53031480  .00000016  00000-0  91291-5 0  9994,2 56787  70.0005 139.0882 0003002 264.6497  95.4320 14.98329959 36125,6950.193,96.107,574.144,569.972,0.0
56787.0,STARLINK-6326,PAYLOAD,2024-01-16 14:19:47,14.98329966,0.0003001,70.0005,138.9198,264.1477,95.934,9.181e-06,1.7e-07,0.0,0 STARLINK-6326,1 56787U 23078W   24016.59707477  .00000017  00000-0  91810-5 0  9994,2 56787  70.0005 138.9198 0003001 264.1477  95.9340 14.98329966 35871,6950.193,96.107,574.144,569.972,0.0
56787.0,STARLINK-6326,PAYLOAD,2024-01-16 17:32:03,14.98332819,0.0002941,70.0007,138.5834,263.0547,97.0278,4.458e-05,4.39e-06,0.0,0 STARLINK-6326,1 56787U 23078W   24016.73059177  .00000439  00000-0  44580-4 0  9996,2 56787  70.0007 138.5834 0002941 263.0547  97.0278 14.98332819 35890,6950.184,96.107,574.093,570.005,0.0
56787.0,STARLINK-6326,PAYLOAD,2024-01-17 14:21:48,14.98326518,0.000287,70.0009,136.3961,259.7105,100.3731,6.2056e-05,6.47e-06,0.0,0 STARLINK-6326,1 56787U 23078W   24017.59847536  .00000647  00000-0  62056-4 0  9994,2 56787  70.0009 136.3961 0002870 259.7105 100.3731 14.98326518 36029,6950.204,96.107,574.063,570.074,0.0
56787.0,STARLINK-6326,PAYLOAD,2024-01-17 17:34:04,14.98327181,0.0002882,70.0009,136.0595,260.652,99.4313,6.4865e-05,6.81e-06,0.0,0 STARLINK-6326,1 56787U 23078W   24017.73199510  .00000681  00000-0  64865-4 0  9990,2 56787  70.0009 136.0595 0002882 260.6520  99.4313 14.98327181 36306,6950.202,96.107,574.07,570.064,0.0
56787.0,STARLINK-6326,PAYLOAD,2024-01-18 11:11:31,14.98344421,0.0003024,70.0004,134.2059,269.0458,91.0354,0.00016106,1.83e-05,0.0,0 STARLINK-6326,1 56787U 23078W   24018.46634156  .00001830  00000-0  16106-3 0  9992,2 56787  70.0004 134.2059 0003024 269.0458  91.0354 14.98344421 36419,6950.148,96.106,574.115,569.912,0.0
56787.0,STARLINK-6326,PAYLOAD,2024-01-18 14:23:48,14.98341504,0.0002207,70.0021,133.8707,251.7337,108.3582,0.00013801,1.555e-05,0.0,0 STARLINK-6326,1 56787U 23078W   24018.59986325  .00001555  00000-0  13801-3 0  9997,2 56787  70.0021 133.8707 0002207 251.7337 108.3582 14.98341504 36176,6950.157,96.106,573.556,570.488,0.0
56787.0,STARLINK-6326,PAYLOAD,2024-01-18 17:36:03,14.98352805,0.0002898,70.0003,133.5318,264.8896,95.1933,0.00022437,2.587e-05,0.0,0 STARLINK-6326,1 56787U 23078W   24018.73337113  .00002587  00000-0  22437-3 0  9999,2 56787  70.0003 133.5318 0002898 264.8896  95.1933 14.98352805 36452,6950.122,96.106,574.002,569.973,0.0
56787.0,STARLINK-6326,PAYLOAD,2024-01-19 11:13:33,14.98332081,0.00032,70.0006,131.6839,269.4943,90.5849,-1.6184e-05,-2.86e-06,0.0,0 STARLINK-6326,1 56787U 23078W   24019.46774597 -.00000286  00000-0 -16184-4 0  9990,2 56787  70.0006 131.6839 0003200 269.4943  90.5849 14.98332081 36565,6950.186,96.107,574.276,569.827,0.0
56787.0,STARLINK-6326,PAYLOAD,2024-01-19 14:25:49,14.98332483,0.0003163,70.0004,131.3481,262.2515,97.8285,-1.793e-05,-3.07e-06,0.0,0 STARLINK-6326,1 56787U 23078W   24019.60126481 -.00000307  00000-0 -17930-4 0  9993,2 56787  70.0004 131.3481 0003163 262.2515  97.8285 14.98332483 36321,6950.185,96.107,574.249,569.852,0.0
56787.0,STARLINK-6326,PAYLOAD,2024-01-19 17:38:05,14.98333059,0.0003183,70.0003,131.0106,266.7389,93.3406,-1.2605e-05,-2.43e-06,0.0,0 STARLINK-6326,1 56787U 23078W   24019.73478424 -.00000243  00000-0 -12605-4 0  9997,2 56787  70.0003 131.0106 0003183 266.7389  93.3406 14.98333059 36349,6950.183,96.107,574.261,569.836,0.0
56787.0,STARLINK-6326,PAYLOAD,2024-01-20 11:15:34,14.98329546,0.0003395,70.0009,129.1593,273.4807,86.5964,-0.0001767,-2.201e-05,0.0,0 STARLINK-6326,1 56787U 23078W   24020.46915181 -.00002201  00000-0 -17670-3 0  9997,2 56787  70.0009 129.1593 0003395 273.4807  86.5964 14.98329546 36718,6950.194,96.107,574.419,569.7,0.0
56787.0,STARLINK-6326,PAYLOAD,2024-01-20 14:27:50,14.98328135,0.0003191,70.001,128.823,266.7865,93.2929,-0.00013019,-1.646e-05,0.0,0 STARLINK-6326,1 56787U 23078W   24020.60267112 -.00001646  00000-0 -13019-3 0  9992,2 56787  70.0010 128.8230 0003191 266.7865  93.2929 14.98328135 36479,6950.199,96.107,574.281,569.846,0.0
56787.0,STARLINK-6326,PAYLOAD,2024-01-20 17:40:05,14.98371876,0.0003353,70.0011,128.4859,273.3801,86.6975,-0.00091569,-0.00011014,0.0,0 STARLINK-6326,1 56787U 23078W   24020.73617994 -.00011014  00000-0 -91569-3 0  9999,2 56787  70.0011 128.4859 0003353 273.3801  86.6975 14.98371876 36755,6950.063,96.104,574.259,569.598,0.0
